NORAD_CAT_ID,OBJECT_NAME,OBJECT_TYPE,EPOCH,MEAN_MOTION,ECCENTRICITY,INCLINATION,RA_OF_ASC_NODE,ARG_OF_PERICENTER,MEAN_ANOMALY,BSTAR,MEAN_MOTION_DOT,MEAN_MOTION_DDOT,TLE_LINE0,TLE_LINE1,TLE_LINE2,SEMIMAJOR_AXIS,PERIOD,APOGEE,PERIGEE,DECAYED
53166.0,STARLINK-4110,PAYLOAD,2022-08-11 20:00:01,15.73229674,0.0002648999999999,53.2164,281.8953,23.1042,210.9665,-3.0292e-06,-1.048e-05,0.0,0 STARLINK-4110,1 53166U 22083AL  22223.83334491 -.00001048  00000-0 -30292-5 0  9998,2 53166  53.2164 281.8953 0002649  23.1042 210.9665 15.73229674  4620,6727.811,91.531,351.458,347.89300000000014,0.0
53166.0,STARLINK-4110,PAYLOAD,2022-08-12 14:00:01,15.73227922,0.000276,53.2165,278.1851,17.425,146.8545,8.6459e-05,0.00011544,0.0,0 STARLINK-4110,1 53166U 22083AL  22224.58334491  .00011544  00000-0  86459-4 0  9996,2 53166  53.2165 278.1851 0002760  17.4250 146.8545 15.73227922  1308,6727.816,91.532,351.537,347.824,0.0
53166.0,STARLINK-4110,PAYLOAD,2022-08-12 20:00:01,15.73226864,0.0002647,53.2163,276.9464,15.9807,125.0927,-0.00022704,-0.00032406,0.0,0 STARLINK-4110,1 53166U 22083AL  22224.83335648 -.00032406  00000-0 -22704-3 0  9993,2 53166  53.2163 276.9464 0002647  15.9807 125.0927 15.73226864  4789,6727.819,91.532,351.464,347.903,0.0
53166.0,STARLINK-4110,PAYLOAD,2022-08-12 22:00:01,15.73190725,0.0002593999999999,53.2164,276.5336,16.6311,236.6905,0.00030106,0.00041829,0.0,0 STARLINK-4110,1 53166U 22083AL  22224.91668981  .00041829  00000-0  30106-3 0  9993,2 53166  53.2164 276.5336 0002594  16.6311 236.6905 15.73190725  1309,6727.922,91.534,351.532,348.041,0.0
53166.0,STARLINK-4110,PAYLOAD,2022-08-13 14:00:01,15.73174309,0.0002856999999999,53.2155,273.2366,17.5916,53.5205,-0.00021873,-0.00031179,0.0,0 STARLINK-4110,1 53166U 22083AL  22225.58334491 -.00031179  00000-0 -21873-3 0  9993,2 53166  53.2155 273.2366 0002857  17.5916  53.5205 15.73174309  1308,6727.968000000003,91.535,351.756,347.911,0.0
53166.0,STARLINK-4110,PAYLOAD,2022-08-13 22:00:00,15.73124452,0.0002606,53.2155,271.585,15.9632,144.0408,0.00038944,0.00054217,0.0,0 STARLINK-4110,1 53166U 22083AL  22225.91667824  .00054217  00000-0  38944-3 0  9992,2 53166  53.2155 271.5850 0002606  15.9632 144.0408 15.73124452  1301,6728.111,91.538,351.72900000000016,348.222,0.0
53166.0,STARLINK-4110,PAYLOAD,2022-08-14 04:00:00,15.73163232,0.0002525,53.2159,270.3454,20.1064,116.5354,0.00027042,0.00037444,0.0,0 STARLINK-4110,1 53166U 22083AL  22226.16667824  .00037444  00000-0  27042-3 0  9990,2 53166  53.2159 270.3454 0002525  20.1064 116.5354 15.73163232  4990,6728.0,91.535,351.564,348.166,0.0
53166.0,STARLINK-4110,PAYLOAD,2022-08-14 14:00:01,15.73174106,0.0002966,53.2156,268.288,17.1674,320.6165,0.00059857,0.00084149,0.0,0 STARLINK-4110,1 53166U 22083AL  22226.58334491  .00084149  00000-0  59857-3 0  9990,2 53166  53.2156 268.2880 0002966  17.1674 320.6165 15.73174106  1300,6727.969,91.535,351.83,347.838,0.0
53166.0,STARLINK-4110,PAYLOAD,2022-08-14 22:00:00,15.7322351,0.0002718,53.2157,266.6364,17.6192,49.1086,0.00022543,0.00031169,0.0,0 STARLINK-4110,1 53166U 22083AL  22226.91667824  .00031169  00000-0  22543-3 0  9992,2 53166  53.2157 266.6364 0002718  17.6192  49.1086 15.73223510  1304,6727.828,91.532,351.522,347.865,0.0
53166.0,STARLINK-4110,PAYLOAD,2022-08-15 14:00:01,15.73199374,0.000293,53.215,263.339,11.7146,232.9306,-0.0002015,-0.00028811,0.0,0 STARLINK-4110,1 53166U 22083AL  22227.58334491 -.00028811  00000-0 -20150-3 0  9991,2 53166  53.2150 263.3390 0002930  11.7146 232.9306 15.73199374  5211,6727.897,91.533,351.733,347.791,0.0
53166.0,STARLINK-4110,PAYLOAD,2022-08-15 22:00:00,15.73157585,0.0002661,53.2151,261.6874,11.8336,321.7496,0.00052184,0.00073131,0.0,0 STARLINK-4110,1 53166U 22083AL  22227.91667824  .00073131  00000-0  52184-3 0  9992,2 53166  53.2151 261.6874 0002661  11.8336 321.7496 15.73157585  1304,6728.016,91.536,351.671,348.091,0.0
53166.0,STARLINK-4110,PAYLOAD,2022-08-16 06:00:02,15.73225497,0.0002761,53.2155,260.0386,12.9742,49.5772,6.4387e-06,2.82e-06,0.0,0 STARLINK-4110,1 53166U 22083AL  22228.25002315  .00000282  00000-0  64387-5 0  9995,2 53166  53.2155 260.0386 0002761  12.9742  49.5772 15.73225497  5318,6727.821999999999,91.532,351.545,347.83,0.0
53166.0,STARLINK-4110,PAYLOAD,2022-08-16 14:00:01,15.73251473,0.0002964,53.2154,258.3902,10.5184,140.9287,-0.00027586,-0.00039253,0.0,0 STARLINK-4110,1 53166U 22083AL  22228.58334491 -.00039253  00000-0 -27586-3 0  9994,2 53166  53.2154 258.3902 0002964  10.5184 140.9287 15.73251473  1305,6727.748000000001,91.53,351.608,347.619,0.0
53166.0,STARLINK-4110,PAYLOAD,2022-08-16 22:00:00,15.73189996,0.0002743,53.2156,256.7384,9.9904,230.4352,0.0002833,0.00039312,0.0,0 STARLINK-4110,1 53166U 22083AL  22228.91667824  .00039312  00000-0  28330-3 0  9992,2 53166  53.2156 256.7384 0002743   9.9904 230.4352 15.73189996  1308,6727.924,91.534,351.634,347.9430000000001,0.0
53166.0,STARLINK-4110,PAYLOAD,2022-08-17 06:00:02,15.73205561,0.00029,53.2154,255.0899,14.7749,314.6548,-0.00028387,-0.0004029,0.0,0 STARLINK-4110,1 53166U 22083AL  22229.25002315 -.00040290  00000-0 -28387-3 0  9999,2 53166  53.2154 255.0899 0002900  14.7749 314.6548 15.73205561  5476,6727.879,91.533,351.695,347.793,0.0
53166.0,STARLINK-4110,PAYLOAD,2022-08-17 14:00:01,15.73203181,0.0003097,53.2148,253.4414,13.7087,44.567,-0.00013787,-0.00019934,0.0,0 STARLINK-4110,1 53166U 22083AL  22229.58334491 -.00019934  00000-0 -13787-3 0  9997,2 53166  53.2148 253.4414 0003097  13.7087  44.5670 15.73203181  1305,6727.886,91.533,351.835,347.667,0.0
53166.0,STARLINK-4110,PAYLOAD,2022-08-18 06:00:02,15.73152762,0.0002898999999999,53.2169,250.1364,10.2316,225.9347,0.00047363,0.0006625,0.0,0 STARLINK-4110,1 53166U 22083AL  22230.25002315  .00066250  00000-0  47363-3 0  9998,2 53166  53.2169 250.1364 0002899  10.2316 225.9347 15.73152762  5636,6728.03,91.536,351.845,347.944,0.0
53166.0,STARLINK-4110,PAYLOAD,2022-08-18 14:00:01,15.73204934,0.0003095,53.2173,248.486,7.541,317.459,2.3167e-06,-2.98e-06,0.0,0 STARLINK-4110,1 53166U 22083AL  22230.58334491 -.00000298  00000-0  23167-5 0  9996,2 53166  53.2173 248.4860 0003095   7.5410 317.4590 15.73204934  1301,6727.880999999999,91.533,351.82800000000015,347.664,0.0
53166.0,STARLINK-4110,PAYLOAD,2022-08-18 22:00:00,15.73202774,0.0002958,53.2174,246.8343,8.6629,45.274,1.4649000000000008e-05,1.434e-05,0.0,0 STARLINK-4110,1 53166U 22083AL  22230.91667824  .00001434  00000-0  14649-4 0  9998,2 53166  53.2174 246.8343 0002958   8.6629  45.2740 15.73202774  5735,6727.887,91.533,351.742,347.76199999999994,0.0
53166.0,STARLINK-4110,PAYLOAD,2022-08-19 14:00:01,15.73154719,0.0003066,53.2144,243.5439,11.9176,220.1009,9.0833e-06,6.5e-06,0.0,0 STARLINK-4110,1 53166U 22083AL  22231.58334491  .00000650  00000-0  90833-5 0  9992,2 53166  53.2144 243.5439 0003066  11.9176 220.1009 15.73154719  5846,6728.024,91.536,351.952,347.826,0.0
53166.0,STARLINK-4110,PAYLOAD,2022-08-19 22:00:00,15.73134295,0.000281,53.2146,241.8926,16.4167,304.461,0.00035498,0.00049358,0.0,0 STARLINK-4110,1 53166U 22083AL  22231.91667824  .00049358  00000-0  35498-3 0  9990,2 53166  53.2146 241.8926 0002810  16.4167 304.4610 15.73134295  1304,6728.083000000001,91.537,351.838,348.057,0.0
53166.0,STARLINK-4110,PAYLOAD,2022-08-20 14:00:01,15.73155162,0.0003156,53.2148,238.5958,20.4499,118.1485,0.0002725,0.00037728,0.0,0 STARLINK-4110,1 53166U 22083AL  22232.58334491  .00037728  00000-0  27250-3 0  9990,2 53166  53.2148 238.5958 0003156  20.4499 118.1485 15.73155162  1307,6728.023,91.536,352.011,347.765,0.0
53166.0,STARLINK-4110,PAYLOAD,2022-08-20 22:00:00,15.73148869,0.0002963,53.2148,236.9446,23.1389,204.3409,0.0006048,0.00084947,0.0,0 STARLINK-4110,1 53166U 22083AL  22232.91667824  .00084947  00000-0  60480-3 0  9993,2 53166  53.2148 236.9446 0002963  23.1389 204.3409 15.73148869  1304,6728.041,91.536,351.899,347.912,0.0
53166.0,STARLINK-4110,PAYLOAD,2022-08-21 14:00:01,15.73257056,0.0003188999999999,53.2138,233.6474,22.1848,23.1249,-0.00032985,-0.00046786,0.0,0 STARLINK-4110,1 53166U 22083AL  22233.58334491 -.00046786  00000-0 -32985-3 0  9998,2 53166  53.2138 233.6474 0003189  22.1848  23.1249 15.73257056  1306,6727.733,91.53,351.74300000000005,347.452,0.0
53166.0,STARLINK-4110,PAYLOAD,2022-08-21 22:00:00,15.73174891,0.000283,53.2139,231.996,23.2998,110.9959,0.00052654,0.00073858,0.0,0 STARLINK-4110,1 53166U 22083AL  22233.91667824  .00073858  00000-0  52654-3 0  9997,2 53166  53.2139 231.9960 0002830  23.2998 110.9959 15.73174891  6211,6727.967,91.535,351.736,347.92800000000005,0.0
53166.0,STARLINK-4110,PAYLOAD,2022-08-22 12:00:00,15.73233383,0.0003069,53.214,229.1116,18.8781,181.0554,-0.00023439,-0.00033443,0.0,0 STARLINK-4110,1 53166U 22083AL  22234.50001157 -.00033443  00000-0 -23439-3 0  9991,2 53166  53.2140 229.1116 0003069  18.8781 181.0554 15.73233383  6302,6727.8,91.531,351.73,347.6,0.0
53166.0,STARLINK-4110,PAYLOAD,2022-08-22 22:00:00,15.73189693,0.0002829,53.2142,227.0474,20.2017,20.9148,0.00042991,0.00060129,0.0,0 STARLINK-4110,1 53166U 22083AL  22234.91667824  .00060129  00000-0  42991-3 0  9998,2 53166  53.2142 227.0474 0002829  20.2017  20.9148 15.73189693  1309,6727.925,91.534,351.6930000000001,347.886,0.0
53166.0,STARLINK-4110,PAYLOAD,2022-08-23 12:00:00,15.73172482,0.0003058999999999,53.2133,224.1627,16.4716,90.2785,0.00028013,0.00038835,0.0,0 STARLINK-4110,1 53166U 22083AL  22235.50001157  .00038835  00000-0  28013-3 0  9993,2 53166  53.2133 224.1627 0003059  16.4716  90.2785 15.73172482  6463,6727.974,91.535,351.897,347.781,0.0
53166.0,STARLINK-4110,PAYLOAD,2022-08-23 14:00:01,15.73199368,0.0002973,53.2133,223.7498,16.8985,202.071,-5.7775e-05,-8.724e-05,0.0,0 STARLINK-4110,1 53166U 22083AL  22235.58334491 -.00008724  00000-0 -57775-4 0  9995,2 53166  53.2133 223.7498 0002973  16.8985 202.0710 15.73199368  1301,6727.897,91.533,351.76199999999994,347.76199999999994,0.0
